[{"OBJECT_NAME":"ORBITER SN3","OBJECT_ID":"2023-084AE","EPOCH":"2026-03-09T23:12:21.976128","MEAN_MOTION":15.32943891,"ECCENTRICITY":0.00075889,"INCLINATION":97.61,"RA_OF_ASC_NODE":206.6768,"ARG_OF_PERICENTER":331.7947,"MEAN_ANOMALY":28.2883,"EPHEMERIS_TYPE":0,"CLASSIFICATION_TYPE":"U","NORAD_CAT_ID":56960,"ELEMENT_SET_NO":999,"REV_AT_EPOCH":15228,"BSTAR":0.00032835432,"MEAN_MOTION_DOT":0.00010378,"MEAN_MOTION_DDOT":0},{"OBJECT_NAME":"STARLINK-34768","OBJECT_ID":"2025-167T","EPOCH":"2026-03-09T04:46:49.943424","MEAN_MOTION":15.30193923,"ECCENTRICITY":0.00011136,"INCLINATION":53.162,"RA_OF_ASC_NODE":29.0121,"ARG_OF_PERICENTER":92.0767,"MEAN_ANOMALY":268.0361,"EPHEMERIS_TYPE":0,"CLASSIFICATION_TYPE":"U","NORAD_CAT_ID":65095,"ELEMENT_SET_NO":999,"REV_AT_EPOCH":3340,"BSTAR":0.00095792648,"MEAN_MOTION_DOT":0.00028114,"MEAN_MOTION_DDOT":0}]
